[{"OBJECT_NAME":"STARLINK-31920","OBJECT_ID":"2024-100Y","EPOCH":"2026-03-09T22:00:01.999584","MEAN_MOTION":15.33615653,"ECCENTRICITY":0.00055131,"INCLINATION":42.9978,"RA_OF_ASC_NODE":90.9988,"ARG_OF_PERICENTER":118.6152,"MEAN_ANOMALY":56.7253,"EPHEMERIS_TYPE":0,"CLASSIFICATION_TYPE":"U","NORAD_CAT_ID":59907,"ELEMENT_SET_NO":999,"REV_AT_EPOCH":580,"BSTAR":0.0037091852,"MEAN_MOTION_DOT":0.00124969,"MEAN_MOTION_DDOT":0},{"OBJECT_NAME":"OBJECT L","OBJECT_ID":"2025-155L","EPOCH":"2026-03-09T22:37:59.438784","MEAN_MOTION":15.35424042,"ECCENTRICITY":0.00089978,"INCLINATION":97.4398,"RA_OF_ASC_NODE":38.3429,"ARG_OF_PERICENTER":138.4507,"MEAN_ANOMALY":221.7422,"EPHEMERIS_TYPE":0,"CLASSIFICATION_TYPE":"U","NORAD_CAT_ID":64886,"ELEMENT_SET_NO":999,"REV_AT_EPOCH":6567,"BSTAR":0.0010049858,"MEAN_MOTION_DOT":0.00034663,"MEAN_MOTION_DDOT":0}]
